STARLINK-2161
1 27747C 21017AB  21325.14376771  .00007054  00000-0  47255-3 0  3254
2 27747  53.0552  47.5933 0001269  72.9755 165.8656 15.06397570    16
